{"type": "FeatureCollection", "features": [ {"type": "Feature", "properties": {"norad_id": 67091, "name": "STARLINK-36097", "group": "last-30-days", "lat": 69.85497244495295, "lon": -52.73239533102737, "alt_km": 338.006693269107, "timestamp": "2025-12-26T14:28:46.399307+00:00", "meta": {"OBJECT_NAME": "STARLINK-36097", "OBJECT_ID": "2025-298S", "EPOCH": "2025-12-26T06:00:02.999808", "MEAN_MOTION": 15.76944489, "ECCENTRICITY": 0.00036463, "INCLINATION": 69.9969, "RA_OF_ASC_NODE": 211.5214, "ARG_OF_PERICENTER": 267.759, "MEAN_ANOMALY": 340.4885, "EPHEMERIS_TYPE": 0, "CLASSIFICATION_TYPE": "U", "NORAD_CAT_ID": 67091, "ELEMENT_SET_NO": 999, "REV_AT_EPOCH": 314, "BSTAR": -0.012481348, "MEAN_MOTION_DOT": -0.01783594, "MEAN_MOTION_DDOT": 0}, "tle": {"line1": "1 67091U 25298S   25360.25003472 -.01783594  00000+0 -12481-1 0  9993", "line2": "2 67091  69.9969 211.5214 0003646 267.7590 340.4885 15.76944489  3141"}}, "geometry": {"type": "Point", "coordinates": [-52.73239533102737, 69.85497244495295]}}, {"type": "Feature", "properties": {"norad_id": 67092, "name": "STARLINK-35792", "group": "last-30-days", "lat": 69.5656000865545, "lon": -47.38252345695062, "alt_km": 338.01298887652774, "timestamp": "2025-12-26T14:28:46.399318+00:00", "meta": {"OBJECT_NAME": "STARLINK-35792", "OBJECT_ID": "2025-298T", "EPOCH": "2025-12-26T06:00:02.999808", "MEAN_MOTION": 15.76943314, "ECCENTRICITY": 0.00036281, "INCLINATION": 69.9967, "RA_OF_ASC_NODE": 211.519, "ARG_OF_PERICENTER": 270.7763, "MEAN_ANOMALY": 339.3429, "EPHEMERIS_TYPE": 0, "CLASSIFICATION_TYPE": "U", "NORAD_CAT_ID": 67092, "ELEMENT_SET_NO": 999, "REV_AT_EPOCH": 309, "BSTAR": -0.012438053, "MEAN_MOTION_DOT": -0.01778051, "MEAN_MOTION_DDOT": 0}, "tle": {"line1": "1 67092U 25298T   25360.25003472 -.01778051  00000+0 -12438-1 0  9998", "line2": "2 67092  69.9967 211.5190 0003628 270.7763 339.3429 15.76943314  3090"}}, "geometry": {"type": "Point", "coordinates": [-47.38252345695062, 69.5656000865545]}}, {"type": "Feature", "properties": {"norad_id": 67093, "name": "STARLINK-35784", "group": "last-30-days", "lat": 69.09166080251488, "lon": -41.96268752397775, "alt_km": 338.0592289774031, "timestamp": "2025-12-26T14:28:46.399330+00:00", "meta": {"OBJECT_NAME": "STARLINK-35784", "OBJECT_ID": "2025-298U", "EPOCH": "2025-12-26T06:00:02.999808", "MEAN_MOTION": 15.76944413, "ECCENTRICITY": 0.00036528, "INCLINATION": 69.9967, "RA_OF_ASC_NODE": 211.5164, "ARG_OF_PERICENTER": 268.8037, "MEAN_ANOMALY": 343.2873, "EPHEMERIS_TYPE": 0, "CLASSIFICATION_TYPE": "U", "NORAD_CAT_ID": 67093, "ELEMENT_SET_NO": 999, "REV_AT_EPOCH": 314, "BSTAR": -0.012476742, "MEAN_MOTION_DOT": -0.01783017, "MEAN_MOTION_DDOT": 0}, "tle": {"line1": "1 67093U 25298U   25360.25003472 -.01783017  00000+0 -12477-1 0  9990", "line2": "2 67093  69.9967 211.5164 0003652 268.8037 343.2873 15.76944413  3145"}}, "geometry": {"type": "Point", "coordinates": [-41.96268752397775, 69.09166080251488]}}, {"type": "Feature", "properties": {"norad_id": 67094, "name": "STARLINK-36202", "group": "last-30-days", "lat": 68.40080442830066, "lon": -36.43751616824157, "alt_km": 338.19347671829837, "timestamp": "2025-12-26T14:28:46.399341+00:00", "meta": {"OBJECT_NAME": "STARLINK-36202", "OBJECT_ID": "2025-298V", "EPOCH": "2025-12-26T06:00:02.999808", "MEAN_MOTION": 15.76932958, "ECCENTRICITY": 0.0003716, "INCLINATION": 69.9967, "RA_OF_ASC_NODE": 211.514, "ARG_OF_PERICENTER": 271.7885, "MEAN_ANOMALY": 342.4292, "EPHEMERIS_TYPE": 0, "CLASSIFICATION_TYPE": "U", "NORAD_CAT_ID": 67094, "ELEMENT_SET_NO": 999, "REV_AT_EPOCH": 314, "BSTAR": -0.012457267, "MEAN_MOTION_DOT": -0.01779835, "MEAN_MOTION_DDOT": 0}, "tle": {"line1": "1 67094U 25298V   25360.25003472 -.01779835  00000+0 -12457-1 0  9992", "line2": "2 67094  69.9967 211.5140 0003716 271.7885 342.4292 15.76932958  3142"}}, "geometry": {"type": "Point", "coordinates": [-36.43751616824157, 68.40080442830066]}}, {"type": "Feature", "properties": {"norad_id": 67095, "name": "STARLINK-36227", "group": "last-30-days", "lat": 67.58016150108789, "lon": -31.497768847077296, "alt_km": 338.242267541671, "timestamp": "2025-12-26T14:28:46.399353+00:00", "meta": {"OBJECT_NAME": "STARLINK-36227", "OBJECT_ID": "2025-298W", "EPOCH": "2025-12-26T06:00:02.999808", "MEAN_MOTION": 15.76930871, "ECCENTRICITY": 0.00036775, "INCLINATION": 69.9965, "RA_OF_ASC_NODE": 211.5113, "ARG_OF_PERICENTER": 272.1447, "MEAN_ANOMALY": 344.0997, "EPHEMERIS_TYPE": 0, "CLASSIFICATION_TYPE": "U", "NORAD_CAT_ID": 67095, "ELEMENT_SET_NO": 999, "REV_AT_EPOCH": 309, "BSTAR": -0.012481356, "MEAN_MOTION_DOT": -0.01782675, "MEAN_MOTION_DDOT": 0}, "tle": {"line1": "1 67095U 25298W   25360.25003472 -.01782675  00000+0 -12481-1 0  9996", "line2": "2 67095  69.9965 211.5113 0003677 272.1447 344.0997 15.76930871  3092"}}, "geometry": {"type": "Point", "coordinates": [-31.497768847077296, 67.58016150108789]}}, {"type": "Feature", "properties": {"norad_id": 67096, "name": "STARLINK-36228", "group": "last-30-days", "lat": 66.7160802413793, "lon": -27.331998776079306, "alt_km": 338.20973046585004, "timestamp": "2025-12-26T14:28:46.399363+00:00", "meta": {"OBJECT_NAME": "STARLINK-36228", "OBJECT_ID": "2025-298X", "EPOCH": "2025-12-26T06:00:02.999808", "MEAN_MOTION": 15.76930962, "ECCENTRICITY": 0.00035489, "INCLINATION": 69.9966, "RA_OF_ASC_NODE": 211.5094, "ARG_OF_PERICENTER": 272.1318, "MEAN_ANOMALY": 345.942, "EPHEMERIS_TYPE": 0, "CLASSIFICATION_TYPE": "U", "NORAD_CAT_ID": 67096, "ELEMENT_SET_NO": 999, "REV_AT_EPOCH": 309, "BSTAR": -0.012447636, "MEAN_MOTION_DOT": -0.0177831, "MEAN_MOTION_DDOT": 0}, "tle": {"line1": "1 67096U 25298X   25360.25003472 -.01778310  00000+0 -12448-1 0  9991", "line2": "2 67096  69.9966 211.5094 0003548 272.1318 345.9420 15.76930962  3098"}}, "geometry": {"type": "Point", "coordinates": [-27.331998776079306, 66.7160802413793]}}, {"type": "Feature", "properties": {"norad_id": 67097, "name": "STARLINK-36222", "group": "last-30-days", "lat": 65.66511219152513, "lon": -23.159011349146105, "alt_km": 338.32582006162374, "timestamp": "2025-12-26T14:28:46.399375+00:00", "meta": {"OBJECT_NAME": "STARLINK-36222", "OBJECT_ID": "2025-298Y", "EPOCH": "2025-12-26T06:00:02.999808", "MEAN_MOTION": 15.76930411, "ECCENTRICITY": 0.00036229, "INCLINATION": 69.996, "RA_OF_ASC_NODE": 211.5077, "ARG_OF_PERICENTER": 269.5034, "MEAN_ANOMALY": 350.5586, "EPHEMERIS_TYPE": 0, "CLASSIFICATION_TYPE": "U", "NORAD_CAT_ID": 67097, "ELEMENT_SET_NO": 999, "REV_AT_EPOCH": 309, "BSTAR": -0.012480115, "MEAN_MOTION_DOT": -0.0178243, "MEAN_MOTION_DDOT": 0}, "tle": {"line1": "1 67097U 25298Y   25360.25003472 -.01782430  00000+0 -12480-1 0  9996", "line2": "2 67097  69.9960 211.5077 0003622 269.5034 350.5586 15.76930411  3096"}}, "geometry": {"type": "Point", "coordinates": [-23.159011349146105, 65.66511219152513]}}, {"type": "Feature", "properties": {"norad_id": 67098, "name": "STARLINK-36205", "group": "last-30-days", "lat": 64.43188778970051, "lon": -19.09043761341116, "alt_km": 338.53050058625377, "timestamp": "2025-12-26T14:28:46.399385+00:00", "meta": {"OBJECT_NAME": "STARLINK-36205", "OBJECT_ID": "2025-298Z", "EPOCH": "2025-12-26T06:00:02.999808", "MEAN_MOTION": 15.76921774, "ECCENTRICITY": 0.00037428, "INCLINATION": 69.9962, "RA_OF_ASC_NODE": 211.5052, "ARG_OF_PERICENTER": 269.6834, "MEAN_ANOMALY": 352.5013, "EPHEMERIS_TYPE": 0, "CLASSIFICATION_TYPE": "U", "NORAD_CAT_ID": 67098, "ELEMENT_SET_NO": 999, "REV_AT_EPOCH": 314, "BSTAR": -0.012488321, "MEAN_MOTION_DOT": -0.01782982, "MEAN_MOTION_DDOT": 0}, "tle": {"line1": "1 67098U 25298Z   25360.25003472 -.01782982  00000+0 -12488-1 0  9997", "line2": "2 67098  69.9962 211.5052 0003742 269.6834 352.5013 15.76921774  3149"}}, "geometry": {"type": "Point", "coordinates": [-19.09043761341116, 64.43188778970051]}}, {"type": "Feature", "properties": {"norad_id": 67099, "name": "STARLINK-36193", "group": "last-30-days", "lat": 69.70042681442514, "lon": -49.48023580292357, "alt_km": 348.4381107511781, "timestamp": "2025-12-26T14:28:46.399396+00:00", "meta": {"OBJECT_NAME": "STARLINK-36193", "OBJECT_ID": "2025-298AA", "EPOCH": "2025-12-26T06:00:02.999808", "MEAN_MOTION": 15.738011, "ECCENTRICITY": 0.00035059, "INCLINATION": 69.9977, "RA_OF_ASC_NODE": 211.5151, "ARG_OF_PERICENTER": 267.69, "MEAN_ANOMALY": 346.0506, "EPHEMERIS_TYPE": 0, "CLASSIFICATION_TYPE": "U", "NORAD_CAT_ID": 67099, "ELEMENT_SET_NO": 999, "REV_AT_EPOCH": 309, "BSTAR": -0.020335105, "MEAN_MOTION_DOT": -0.02466324, "MEAN_MOTION_DDOT": 0}, "tle": {"line1": "1 67099U 25298AA  25360.25003472 -.02466324  00000+0 -20335-1 0  9998", "line2": "2 67099  69.9977 211.5151 0003505 267.6900 346.0506 15.73801100  3091"}}, "geometry": {"type": "Point", "coordinates": [-49.48023580292357, 69.70042681442514]}}, {"type": "Feature", "properties": {"norad_id": 67100, "name": "STARLINK-36215", "group": "last-30-days", "lat": 60.75954031800198, "lon": -10.104881380942107, "alt_km": 338.8143428309859, "timestamp": "2025-12-26T14:28:46.399408+00:00", "meta": {"OBJECT_NAME": "STARLINK-36215", "OBJECT_ID": "2025-298AB", "EPOCH": "2025-12-26T06:00:02.999808", "MEAN_MOTION": 15.76933859, "ECCENTRICITY": 0.00037123, "INCLINATION": 69.9962, "RA_OF_ASC_NODE": 211.4977, "ARG_OF_PERICENTER": 271.0791, "MEAN_ANOMALY": 356.608, "EPHEMERIS_TYPE": 0, "CLASSIFICATION_TYPE": "U", "NORAD_CAT_ID": 67100, "ELEMENT_SET_NO": 999, "REV_AT_EPOCH": 314, "BSTAR": -0.01249054, "MEAN_MOTION_DOT": -0.01784075, "MEAN_MOTION_DDOT": 0}, "tle": {"line1": "1 67100U 25298AB  25360.25003472 -.01784075  00000+0 -12491-1 0  9990", "line2": "2 67100  69.9962 211.4977 0003712 271.0791 356.6080 15.76933859  3140"}}, "geometry": {"type": "Point", "coordinates": [-10.104881380942107, 60.75954031800198]}}]}